{
  "type": "FeatureCollection",
  "features": [
    {
      "type": "Feature",
      "properties": {
        "norad_id": 36083,
        "name": "IRIDIUM 33 DEB",
        "group": "iridium-33-debris",
        "lat": 13.168790622811883,
        "lon": 31.047148485339584,
        "alt_km": 767.6834174556725,
        "timestamp": "2025-12-21T22:41:41.844921+00:00",
        "meta_object_name": "IRIDIUM 33 DEB",
        "meta_object_id": "1997-051VQ",
        "meta_epoch": "2025-12-21T09:19:18.145344",
        "meta_mean_motion": 14.43234813,
        "meta_eccentricity": 0.00261912,
        "meta_inclination": 86.3424,
        "meta_ra_of_asc_node": 30.4295,
        "meta_arg_of_pericenter": 193.4541,
        "meta_mean_anomaly": 166.5965,
        "meta_ephemeris_type": 0,
        "meta_classification_type": "U",
        "meta_norad_cat_id": 36083,
        "meta_element_set_no": 999,
        "meta_rev_at_epoch": 85574,
        "meta_bstar": 0.00039895396,
        "meta_mean_motion_dot": 1.367e-05,
        "meta_mean_motion_ddot": 0,
        "tle_line1": "1 36083U 97051VQ  25355.38840446  .00001367  00000+0  39895-3 0  9992",
        "tle_line2": "2 36083  86.3424  30.4295 0026191 193.4541 166.5965 14.43234813855748"
      },
      "geometry": {
        "type": "Point",
        "coordinates": [
          31.047148485339584,
          13.168790622811883
        ]
      }
    },
    {
      "type": "Feature",
      "properties": {
        "norad_id": 36390,
        "name": "IRIDIUM 33 DEB",
        "group": "iridium-33-debris",
        "lat": 60.44452746371343,
        "lon": 108.60407517212717,
        "alt_km": 621.6764769808569,
        "timestamp": "2025-12-21T22:41:41.844930+00:00",
        "meta_object_name": "IRIDIUM 33 DEB",
        "meta_object_id": "1997-051VU",
        "meta_epoch": "2025-12-18T02:53:50.749728",
        "meta_mean_motion": 14.73679499,
        "meta_eccentricity": 0.00315796,
        "meta_inclination": 86.2911,
        "meta_ra_of_asc_node": 296.9257,
        "meta_arg_of_pericenter": 143.7695,
        "meta_mean_anomaly": 216.5671,
        "meta_ephemeris_type": 0,
        "meta_classification_type": "U",
        "meta_norad_cat_id": 36390,
        "meta_element_set_no": 999,
        "meta_rev_at_epoch": 66341,
        "meta_bstar": 0.00081895703,
        "meta_mean_motion_dot": 5.409e-05,
        "meta_mean_motion_ddot": 0,
        "tle_line1": "1 36390U 97051VU  25352.12072627  .00005409  00000+0  81896-3 0  9999",
        "tle_line2": "2 36390  86.2911 296.9257 0031579 143.7695 216.5671 14.73679499663417"
      },
      "geometry": {
        "type": "Point",
        "coordinates": [
          108.60407517212717,
          60.44452746371343
        ]
      }
    },
    {
      "type": "Feature",
      "properties": {
        "norad_id": 36483,
        "name": "IRIDIUM 33 DEB",
        "group": "iridium-33-debris",
        "lat": -82.19871828748943,
        "lon": -103.91795584493953,
        "alt_km": 754.4180782484482,
        "timestamp": "2025-12-21T22:41:41.844940+00:00",
        "meta_object_name": "IRIDIUM 33 DEB",
        "meta_object_id": "1997-051VZ",
        "meta_epoch": "2025-12-21T09:51:19.840320",
        "meta_mean_motion": 14.4583718,
        "meta_eccentricity": 0.00113273,
        "meta_inclination": 86.3785,
        "meta_ra_of_asc_node": 48.7778,
        "meta_arg_of_pericenter": 102.2309,
        "meta_mean_anomaly": 258.0162,
        "meta_ephemeris_type": 0,
        "meta_classification_type": "U",
        "meta_norad_cat_id": 36483,
        "meta_element_set_no": 999,
        "meta_rev_at_epoch": 65271,
        "meta_bstar": 0.00036535709,
        "meta_mean_motion_dot": 1.317e-05,
        "meta_mean_motion_ddot": 0,
        "tle_line1": "1 36483U 97051VZ  25355.41064630  .00001317  00000+0  36536-3 0  9997",
        "tle_line2": "2 36483  86.3785  48.7778 0011327 102.2309 258.0162 14.45837180652711"
      },
      "geometry": {
        "type": "Point",
        "coordinates": [
          -103.91795584493953,
          -82.19871828748943
        ]
      }
    },
    {
      "type": "Feature",
      "properties": {
        "norad_id": 36490,
        "name": "IRIDIUM 33 DEB",
        "group": "iridium-33-debris",
        "lat": 85.85426936643988,
        "lon": 67.59784197438275,
        "alt_km": 630.0683339810103,
        "timestamp": "2025-12-21T22:41:41.844951+00:00",
        "meta_object_name": "IRIDIUM 33 DEB",
        "meta_object_id": "1997-051WG",
        "meta_epoch": "2025-12-20T18:38:39.578208",
        "meta_mean_motion": 14.76343752,
        "meta_eccentricity": 0.00052455,
        "meta_inclination": 86.365,
        "meta_ra_of_asc_node": 6.8378,
        "meta_arg_of_pericenter": 65.8032,
        "meta_mean_anomaly": 294.3734,
        "meta_ephemeris_type": 0,
        "meta_classification_type": "U",
        "meta_norad_cat_id": 36490,
        "meta_element_set_no": 999,
        "meta_rev_at_epoch": 86603,
        "meta_bstar": 0.00097886565,
        "meta_mean_motion_dot": 6.818e-05,
        "meta_mean_motion_ddot": 0,
        "tle_line1": "1 36490U 97051WG  25354.77684697  .00006818  00000+0  97887-3 0  9991",
        "tle_line2": "2 36490  86.3650   6.8378 0005245  65.8032 294.3734 14.76343752866031"
      },
      "geometry": {
        "type": "Point",
        "coordinates": [
          67.59784197438275,
          85.85426936643988
        ]
      }
    },
    {
      "type": "Feature",
      "properties": {
        "norad_id": 36493,
        "name": "IRIDIUM 33 DEB",
        "group": "iridium-33-debris",
        "lat": 6.666212287757119,
        "lon": 8.016265569658485,
        "alt_km": 672.7478640882455,
        "timestamp": "2025-12-21T22:41:41.844961+00:00",
        "meta_object_name": "IRIDIUM 33 DEB",
        "meta_object_id": "1997-051WK",
        "meta_epoch": "2025-12-20T07:19:49.672128",
        "meta_mean_motion": 14.65320442,
        "meta_eccentricity": 0.00093315,
        "meta_inclination": 86.3566,
        "meta_ra_of_asc_node": 8.3183,
        "meta_arg_of_pericenter": 338.064,
        "meta_mean_anomaly": 22.0172,
        "meta_ephemeris_type": 0,
        "meta_classification_type": "U",
        "meta_norad_cat_id": 36493,
        "meta_element_set_no": 999,
        "meta_rev_at_epoch": 74629,
        "meta_bstar": 0.0008112231,
        "meta_mean_motion_dot": 4.401e-05,
        "meta_mean_motion_ddot": 0,
        "tle_line1": "1 36493U 97051WK  25354.30543602  .00004401  00000+0  81122-3 0  9994",
        "tle_line2": "2 36493  86.3566   8.3183 0009331 338.0640  22.0172 14.65320442746297"
      },
      "geometry": {
        "type": "Point",
        "coordinates": [
          8.016265569658485,
          6.666212287757119
        ]
      }
    },
    {
      "type": "Feature",
      "properties": {
        "norad_id": 37548,
        "name": "IRIDIUM 33 DEB",
        "group": "iridium-33-debris",
        "lat": 85.93736469647907,
        "lon": 155.44287495071666,
        "alt_km": 706.3238370900863,
        "timestamp": "2025-12-21T22:41:41.844971+00:00",
        "meta_object_name": "IRIDIUM 33 DEB",
        "meta_object_id": "1997-051XH",
        "meta_epoch": "2025-12-15T20:39:30.861504",
        "meta_mean_motion": 14.51326297,
        "meta_eccentricity": 0.00258157,
        "meta_inclination": 86.3522,
        "meta_ra_of_asc_node": 42.0105,
        "meta_arg_of_pericenter": 178.4192,
        "meta_mean_anomaly": 181.71,
        "meta_ephemeris_type": 0,
        "meta_classification_type": "U",
        "meta_norad_cat_id": 37548,
        "meta_element_set_no": 999,
        "meta_rev_at_epoch": 65577,
        "meta_bstar": 0.00067405053,
        "meta_mean_motion_dot": 2.715e-05,
        "meta_mean_motion_ddot": 0,
        "tle_line1": "1 37548U 97051XH  25349.86077386  .00002715  00000+0  67405-3 0  9996",
        "tle_line2": "2 37548  86.3522  42.0105 0025815 178.4192 181.7100 14.51326297655778"
      },
      "geometry": {
        "type": "Point",
        "coordinates": [
          155.44287495071666,
          85.93736469647907
        ]
      }
    },
    {
      "type": "Feature",
      "properties": {
        "norad_id": 37550,
        "name": "IRIDIUM 33 DEB",
        "group": "iridium-33-debris",
        "lat": -64.55846590863317,
        "lon": 12.141654867048217,
        "alt_km": 680.4653574994754,
        "timestamp": "2025-12-21T22:41:41.844981+00:00",
        "meta_object_name": "IRIDIUM 33 DEB",
        "meta_object_id": "1997-051XK",
        "meta_epoch": "2025-12-19T08:47:41.172864",
        "meta_mean_motion": 14.67293181,
        "meta_eccentricity": 0.0005615,
        "meta_inclination": 86.3772,
        "meta_ra_of_asc_node": 20.938,
        "meta_arg_of_pericenter": 96.5697,
        "meta_mean_anomaly": 263.6157,
        "meta_ephemeris_type": 0,
        "meta_classification_type": "U",
        "meta_norad_cat_id": 37550,
        "meta_element_set_no": 999,
        "meta_rev_at_epoch": 86430,
        "meta_bstar": 0.00085807,
        "meta_mean_motion_dot": 4.861e-05,
        "meta_mean_motion_ddot": 0,
        "tle_line1": "1 37550U 97051XK  25353.36644876  .00004861  00000+0  85807-3 0  9993",
        "tle_line2": "2 37550  86.3772  20.9380 0005615  96.5697 263.6157 14.67293181864309"
      },
      "geometry": {
        "type": "Point",
        "coordinates": [
          12.141654867048217,
          -64.55846590863317
        ]
      }
    }
  ]
}